HST                     
1 20580U 90037B   26187.43980126  .00006941  00000+0  21758-3 0  9996
2 20580  28.4736 308.9720 0001833  18.1844 341.8817 15.30993245791524
POLAR                   
1 23802U 96013A   26186.52270603  .00000200  00000+0  00000+0 0  9992
2 23802  79.8774 226.8348 6488910 208.4492  91.0667  1.29846115145104
SWAS                    
1 25560U 98071A   26187.69446762  .00002272  00000+0  14706-3 0  9994
2 25560  69.8941 177.2088 0008173 239.6608 120.3749 15.09715498500216
CXO                     
1 25867U 99040B   26190.53346780  .00000720  00000+0  00000+0 0  9991
2 25867  56.4882 116.0417 7806470 310.0470   0.4589  0.37804829 17409
XMM-NEWTON              
1 25989U 99066A   26189.29225867  .00000112  00000+0  00000+0 0  9992
2 25989  64.3787 282.7174 4670357  64.5370   0.0317  0.50122523 23116
TERRA                   
1 25994U 99068A   26187.82074630  .00000333  00000+0  76645-4 0  9995
2 25994  97.9445 236.5875 0003007 139.5044 344.2571 14.61119025412475
CLUSTER II-FM7 (SAMBA)  
1 26410U 00041A   26190.44891404  .00010356  00000+0  00000+0 0  9993
2 26410 149.8603  54.9303 9081540 272.3494 359.5434  0.44872728 20409
CLUSTER II-FM8 (TANGO)  
1 26464U 00045B   26186.44804170  .00007110  00000+0  00000+0 0  9999
2 26464 150.0949  55.2192 9081119 272.4711   2.3437  0.44414475 20395
ODIN                    
1 26702U 01007A   26187.85803006  .00264622  00000+0  11059-2 0  9998
2 26702  97.3760 230.1730 0005337 141.3363 218.8290 15.84940805392509
TIMED                   
1 26998U 01055B   26187.81179727  .00000978  00000+0  92286-4 0  9995
2 26998  74.0660 195.5032 0001998 309.4938  50.6070 14.95332168333758
CORIOLIS                
1 27640U 03001A   26187.85690192  .00000079  00000+0  57556-4 0  9994
2 27640  98.7129 194.4414 0014555 152.0180 208.1782 14.19950118217019
SORCE                   
1 27651U 03004A   26187.33253841  .00003090  00000+0  23093-3 0  9992
2 27651  39.9893 152.4367 0017776 193.9590 166.0715 15.03810350274786
MOST                    
1 27843U 03031D   26187.57037519  .00000062  00000+0  48584-4 0  9992
2 27843  98.7047 195.0257 0009574 189.9286 170.1704 14.21326529193466
SCISAT 1                
1 27858U 03036A   26187.87662370  .00000638  00000+0  86131-4 0  9994
2 27858  73.9299 132.2226 0007801 201.6260 158.4588 14.81471757234364
SWIFT                   
1 28485U 04047A   26186.87627307  .00061981  00000+0  47565-3 0  9999
2 28485  20.5532  40.5436 0000897 245.9890 114.0463 15.70286946189802
HINODE (SOLAR-B)        
1 29479U 06041A   26187.60280110  .00000689  00000+0  12670-3 0  9995
2 29479  98.0546 203.4690 0016405 222.8121 137.1807 14.68650450 57720
SHIJIAN-6 02A (SJ-6 02A)
1 29505U 06046A   26187.81335795  .00003135  00000+0  16136-3 0  9993
2 29505  97.6345 229.0285 0004690  80.9443 279.2320 15.17178539 75242
SHIJIAN-6 02B (SJ-6 02B)
1 29506U 06046B   26187.87359829  .00001445  00000+0  11644-3 0  9995
2 29506  97.7148 216.8106 0014425   3.5906 356.5419 15.01427622 73691
FGRST (GLAST)           
1 33053U 08029A   26187.02035083  .00003711  00000+0  13510-3 0  9992
2 33053  25.5823  73.7030 0008011 185.9397 174.1047 15.24039935998712
SDO                     
1 36395U 10005A   26187.29985258 -.00000073  00000+0  00000+0 0  9993
2 36395  34.6882  86.0538 0001597  54.6395 149.2448  1.00269873 60254
CRYOSAT 2               
1 36508U 10013A   26187.86159104  .00000146  00000+0  35463-4 0  9990
2 36508  92.0359 282.0845 0002267  97.4501 262.6964 14.51896336860931
X-SAT                   
1 37389U 11015C   26187.88298743 -.00000032  00000+0  38773-5 0  9999
2 37389  98.3525 163.9690 0012849 287.7581  72.2197 14.25211924790487
GCOM-W1 (SHIZUKU)       
1 38337U 12025A   26187.74067376  .00000424  00000+0  10403-3 0  9998
2 38337  98.2023 128.0007 0001429  65.8323 355.4362 14.57143103751887
NUSTAR                  
1 38358U 12031A   26187.91670139  .00000039  00000+0 -49903-4 0  9995
2 38358   6.0268 246.1462 0006991  34.0346 238.5954 15.09000837  1304
NEOSSAT                 
1 39089U 13009D   26187.44296067  .00000167  00000+0  72348-4 0  9995
2 39089  98.4186   7.0184 0010883 182.8450 177.2676 14.35833431699505
BRITE-AUSTRIA           
1 39091U 13009F   26187.43200206  .00000186  00000+0  77696-4 0  9999
2 39091  98.4004   6.3921 0010220 175.9573 184.1698 14.36550054699815
IRIS                    
1 39197U 13033A   26187.55887480  .00001036  00000+0  12463-3 0  9996
2 39197  97.9322  26.7749 0022974 254.9191 104.9482 14.85924866703251
HISAKI (SPRINT-A)       
1 39253U 13049A   26187.20378117  .00000106  00000+0  53314-4 0  9998
2 39253  29.7188 123.3254 0136905 171.0277 189.2780 13.55546177634000
CASSIOPE                
1 39265U 13055A   26187.83169558  .00032891 -48756-6  35342-3 0  9998
2 39265  80.9128  42.8316 0285147 356.2461   3.6624 15.26981094670664
STSAT-3                 
1 39422U 13066G   26187.88813569  .00002301  00000+0  17603-3 0  9993
2 39422  97.6205 157.4598 0009140 339.6871  20.3989 15.02863619687161
SWARM B                 
1 39451U 13067A   26187.83865303  .00003423  00000+0  12157-3 0  9999
2 39451  87.7456 336.3461 0002633  80.3028 279.8519 15.28680091686249
